{"type": "FeatureCollection", "features": [ {"type": "Feature", "properties": {"norad_id": 66422, "name": "STARLINK-35617", "group": "last-30-days", "lat": -11.457947581856713, "lon": -108.7587994879016, "alt_km": 443.815368102476, "timestamp": "2025-12-10T21:43:20.860802+00:00", "meta": {"OBJECT_NAME": "STARLINK-35617", "OBJECT_ID": "2025-259A", "EPOCH": "2025-12-09T12:12:10.263168", "MEAN_MOTION": 15.40777762, "ECCENTRICITY": 0.00010396, "INCLINATION": 43.0035, "RA_OF_ASC_NODE": 66.7321, "ARG_OF_PERICENTER": 134.0359, "MEAN_ANOMALY": 226.0583, "EPHEMERIS_TYPE": 0, "CLASSIFICATION_TYPE": "U", "NORAD_CAT_ID": 66422, "ELEMENT_SET_NO": 999, "REV_AT_EPOCH": 566, "BSTAR": 0.0020546289, "MEAN_MOTION_DOT": 0.00086728, "MEAN_MOTION_DDOT": 0}, "tle": {"line1": "1 66422U 25259A   25343.50845212  .00086728  00000+0  20546-2 0  9996", "line2": "2 66422  43.0035  66.7321 0001039 134.0359 226.0583 15.40777762  5669"}}, "geometry": {"type": "Point", "coordinates": [-108.7587994879016, -11.457947581856713]}}, {"type": "Feature", "properties": {"norad_id": 66423, "name": "STARLINK-35618", "group": "last-30-days", "lat": -18.89097629426292, "lon": -99.80332964794479, "alt_km": 445.242771596646, "timestamp": "2025-12-10T21:43:20.860816+00:00", "meta": {"OBJECT_NAME": "STARLINK-35618", "OBJECT_ID": "2025-259B", "EPOCH": "2025-12-10T14:35:56.842656", "MEAN_MOTION": 15.40711706, "ECCENTRICITY": 0.00019576, "INCLINATION": 43.0022, "RA_OF_ASC_NODE": 60.3646, "ARG_OF_PERICENTER": 274.9313, "MEAN_ANOMALY": 85.132, "EPHEMERIS_TYPE": 0, "CLASSIFICATION_TYPE": "U", "NORAD_CAT_ID": 66423, "ELEMENT_SET_NO": 999, "REV_AT_EPOCH": 583, "BSTAR": 0.0018368317, "MEAN_MOTION_DOT": 0.00077237, "MEAN_MOTION_DDOT": 0}, "tle": {"line1": "1 66423U 25259B   25344.60829679  .00077237  00000+0  18368-2 0  9992", "line2": "2 66423  43.0022  60.3646 0001957 274.9313  85.1320 15.40711706  5837"}}, "geometry": {"type": "Point", "coordinates": [-99.80332964794479, -18.89097629426292]}}, {"type": "Feature", "properties": {"norad_id": 66424, "name": "STARLINK-35588", "group": "last-30-days", "lat": -26.456508378130273, "lon": -89.1066548684929, "alt_km": 444.96085881246745, "timestamp": "2025-12-10T21:43:20.860827+00:00", "meta": {"OBJECT_NAME": "STARLINK-35588", "OBJECT_ID": "2025-259C", "EPOCH": "2025-12-10T14:32:43.030176", "MEAN_MOTION": 15.4072746, "ECCENTRICITY": 0.00029796, "INCLINATION": 43.0063, "RA_OF_ASC_NODE": 60.3471, "ARG_OF_PERICENTER": 267.9625, "MEAN_ANOMALY": 92.0891, "EPHEMERIS_TYPE": 0, "CLASSIFICATION_TYPE": "U", "NORAD_CAT_ID": 66424, "ELEMENT_SET_NO": 999, "REV_AT_EPOCH": 583, "BSTAR": 0.0018882199, "MEAN_MOTION_DOT": 0.00079476, "MEAN_MOTION_DDOT": 0}, "tle": {"line1": "1 66424U 25259C   25344.60605359  .00079476  00000+0  18882-2 0  9998", "line2": "2 66424  43.0063  60.3471 0002979 267.9625  92.0891 15.40727460  5836"}}, "geometry": {"type": "Point", "coordinates": [-89.1066548684929, -26.456508378130273]}}, {"type": "Feature", "properties": {"norad_id": 66425, "name": "STARLINK-35555", "group": "last-30-days", "lat": -33.11848150895568, "lon": -76.97428716450233, "alt_km": 445.05845136136395, "timestamp": "2025-12-10T21:43:20.860838+00:00", "meta": {"OBJECT_NAME": "STARLINK-35555", "OBJECT_ID": "2025-259D", "EPOCH": "2025-12-10T14:29:29.330016", "MEAN_MOTION": 15.4074236, "ECCENTRICITY": 0.00026403, "INCLINATION": 42.9995, "RA_OF_ASC_NODE": 60.3299, "ARG_OF_PERICENTER": 256.0645, "MEAN_ANOMALY": 103.9918, "EPHEMERIS_TYPE": 0, "CLASSIFICATION_TYPE": "U", "NORAD_CAT_ID": 66425, "ELEMENT_SET_NO": 999, "REV_AT_EPOCH": 583, "BSTAR": 0.0016616417, "MEAN_MOTION_DOT": 0.00069848, "MEAN_MOTION_DDOT": 0}, "tle": {"line1": "1 66425U 25259D   25344.60381169  .00069848  00000+0  16616-2 0  9994", "line2": "2 66425  42.9995  60.3299 0002640 256.0645 103.9918 15.40742360  5831"}}, "geometry": {"type": "Point", "coordinates": [-76.97428716450233, -33.11848150895568]}}, {"type": "Feature", "properties": {"norad_id": 66426, "name": "STARLINK-35589", "group": "last-30-days", "lat": -38.42103332388644, "lon": -63.0931611704934, "alt_km": 446.44781124330166, "timestamp": "2025-12-10T21:43:20.860849+00:00", "meta": {"OBJECT_NAME": "STARLINK-35589", "OBJECT_ID": "2025-259E", "EPOCH": "2025-12-10T14:26:16.620000", "MEAN_MOTION": 15.40779497, "ECCENTRICITY": 5.451e-05, "INCLINATION": 42.9988, "RA_OF_ASC_NODE": 60.311, "ARG_OF_PERICENTER": 253.5463, "MEAN_ANOMALY": 106.5334, "EPHEMERIS_TYPE": 0, "CLASSIFICATION_TYPE": "U", "NORAD_CAT_ID": 66426, "ELEMENT_SET_NO": 999, "REV_AT_EPOCH": 583, "BSTAR": 0.0022532189, "MEAN_MOTION_DOT": 0.00095253, "MEAN_MOTION_DDOT": 0}, "tle": {"line1": "1 66426U 25259E   25344.60158125  .00095253  00000+0  22532-2 0  9992", "line2": "2 66426  42.9988  60.3110 0000545 253.5463 106.5334 15.40779497  5830"}}, "geometry": {"type": "Point", "coordinates": [-63.0931611704934, -38.42103332388644]}}, {"type": "Feature", "properties": {"norad_id": 66427, "name": "STARLINK-35611", "group": "last-30-days", "lat": -41.83488341333433, "lon": -47.59719918371655, "alt_km": 446.2378369163134, "timestamp": "2025-12-10T21:43:20.860860+00:00", "meta": {"OBJECT_NAME": "STARLINK-35611", "OBJECT_ID": "2025-259F", "EPOCH": "2025-12-10T12:49:41.678688", "MEAN_MOTION": 15.4069374, "ECCENTRICITY": 0.00015818, "INCLINATION": 43.0005, "RA_OF_ASC_NODE": 60.666, "ARG_OF_PERICENTER": 283.5318, "MEAN_ANOMALY": 76.5363, "EPHEMERIS_TYPE": 0, "CLASSIFICATION_TYPE": "U", "NORAD_CAT_ID": 66427, "ELEMENT_SET_NO": 999, "REV_AT_EPOCH": 582, "BSTAR": 0.002174395, "MEAN_MOTION_DOT": 0.00091605, "MEAN_MOTION_DDOT": 0}, "tle": {"line1": "1 66427U 25259F   25344.53451017  .00091605  00000+0  21744-2 0  9992", "line2": "2 66427  43.0005  60.6660 0001581 283.5318  76.5363 15.40693740  5822"}}, "geometry": {"type": "Point", "coordinates": [-47.59719918371655, -41.83488341333433]}}, {"type": "Feature", "properties": {"norad_id": 66428, "name": "STARLINK-35610", "group": "last-30-days", "lat": -42.98295259999748, "lon": -30.757129204754847, "alt_km": 443.8976222429901, "timestamp": "2025-12-10T21:43:20.860871+00:00", "meta": {"OBJECT_NAME": "STARLINK-35610", "OBJECT_ID": "2025-259G", "EPOCH": "2025-12-10T12:46:27.141312", "MEAN_MOTION": 15.4072536, "ECCENTRICITY": 0.00048356, "INCLINATION": 43.0056, "RA_OF_ASC_NODE": 60.6532, "ARG_OF_PERICENTER": 275.4633, "MEAN_ANOMALY": 84.5671, "EPHEMERIS_TYPE": 0, "CLASSIFICATION_TYPE": "U", "NORAD_CAT_ID": 66428, "ELEMENT_SET_NO": 999, "REV_AT_EPOCH": 582, "BSTAR": 0.0019317501, "MEAN_MOTION_DOT": 0.00081347, "MEAN_MOTION_DDOT": 0}, "tle": {"line1": "1 66428U 25259G   25344.53225858  .00081347  00000+0  19318-2 0  9991", "line2": "2 66428  43.0056  60.6532 0004835 275.4633  84.5671 15.40725360  5827"}}, "geometry": {"type": "Point", "coordinates": [-30.757129204754847, -42.98295259999748]}}, {"type": "Feature", "properties": {"norad_id": 66429, "name": "STARLINK-35533", "group": "last-30-days", "lat": -41.63720395095454, "lon": -14.081204971972005, "alt_km": 444.8139518144353, "timestamp": "2025-12-10T21:43:20.860882+00:00", "meta": {"OBJECT_NAME": "STARLINK-35533", "OBJECT_ID": "2025-259H", "EPOCH": "2025-12-10T12:43:13.689984", "MEAN_MOTION": 15.40705021, "ECCENTRICITY": 0.00035437, "INCLINATION": 43.001, "RA_OF_ASC_NODE": 60.6315, "ARG_OF_PERICENTER": 271.0151, "MEAN_ANOMALY": 89.03, "EPHEMERIS_TYPE": 0, "CLASSIFICATION_TYPE": "U", "NORAD_CAT_ID": 66429, "ELEMENT_SET_NO": 999, "REV_AT_EPOCH": 582, "BSTAR": 0.0016480872, "MEAN_MOTION_DOT": 0.00069189, "MEAN_MOTION_DDOT": 0}, "tle": {"line1": "1 66429U 25259H   25344.53001956  .00069189  00000+0  16481-2 0  9991", "line2": "2 66429  43.0010  60.6315 0003543 271.0151  89.0300 15.40705021  5820"}}, "geometry": {"type": "Point", "coordinates": [-14.081204971972005, -41.63720395095454]}}, {"type": "Feature", "properties": {"norad_id": 66430, "name": "STARLINK-35470", "group": "last-30-days", "lat": -38.06695690741336, "lon": 1.256816773696324, "alt_km": 446.3102466438904, "timestamp": "2025-12-10T21:43:20.860893+00:00", "meta": {"OBJECT_NAME": "STARLINK-35470", "OBJECT_ID": "2025-259J", "EPOCH": "2025-12-10T16:00:01.999584", "MEAN_MOTION": 15.40765168, "ECCENTRICITY": 0.00012177, "INCLINATION": 43.0005, "RA_OF_ASC_NODE": 59.8164, "ARG_OF_PERICENTER": 276.6523, "MEAN_ANOMALY": 134.6628, "EPHEMERIS_TYPE": 0, "CLASSIFICATION_TYPE": "U", "NORAD_CAT_ID": 66430, "ELEMENT_SET_NO": 999, "REV_AT_EPOCH": 594, "BSTAR": -0.0015817831, "MEAN_MOTION_DOT": -0.00065951, "MEAN_MOTION_DDOT": 0}, "tle": {"line1": "1 66430U 25259J   25344.66668981 -.00065951  00000+0 -15818-2 0  9992", "line2": "2 66430  43.0005  59.8164 0001217 276.6523 134.6628 15.40765168  5949"}}, "geometry": {"type": "Point", "coordinates": [1.256816773696324, -38.06695690741336]}}, {"type": "Feature", "properties": {"norad_id": 66431, "name": "STARLINK-35439", "group": "last-30-days", "lat": -32.63718257255976, "lon": 14.996299983133703, "alt_km": 446.05015361169444, "timestamp": "2025-12-10T21:43:20.860904+00:00", "meta": {"OBJECT_NAME": "STARLINK-35439", "OBJECT_ID": "2025-259K", "EPOCH": "2025-12-10T16:00:01.999584", "MEAN_MOTION": 15.4064164, "ECCENTRICITY": 0.00012835, "INCLINATION": 43.0005, "RA_OF_ASC_NODE": 59.7844, "ARG_OF_PERICENTER": 300.3851, "MEAN_ANOMALY": 123.4762, "EPHEMERIS_TYPE": 0, "CLASSIFICATION_TYPE": "U", "NORAD_CAT_ID": 66431, "ELEMENT_SET_NO": 999, "REV_AT_EPOCH": 594, "BSTAR": 0.0027801145, "MEAN_MOTION_DOT": 0.00117404, "MEAN_MOTION_DDOT": 0}, "tle": {"line1": "1 66431U 25259K   25344.66668981  .00117404  00000+0  27801-2 0  9997", "line2": "2 66431  43.0005  59.7844 0001283 300.3851 123.4762 15.40641640  5949"}}, "geometry": {"type": "Point", "coordinates": [14.996299983133703, -32.63718257255976]}}]}